[{"OBJECT_NAME":"AMC-3","OBJECT_ID":"1997-050A","EPOCH":"2026-03-29T04:58:32.009088","MEAN_MOTION":1.00272429,"ECCENTRICITY":0.0003381,"INCLINATION":7.9515,"RA_OF_ASC_NODE":64.9847,"ARG_OF_PERICENTER":305.9004,"MEAN_ANOMALY":178.3497,"EPHEMERIS_TYPE":0,"CLASSIFICATION_TYPE":"U","NORAD_CAT_ID":24936,"ELEMENT_SET_NO":999,"REV_AT_EPOCH":5163,"BSTAR":0,"MEAN_MOTION_DOT":-2.75e-6,"MEAN_MOTION_DDOT":0},{"OBJECT_NAME":"NSS-11","OBJECT_ID":"2000-059A","EPOCH":"2026-03-28T05:43:38.788032","MEAN_MOTION":1.00271838,"ECCENTRICITY":0.0003084,"INCLINATION":1.9181,"RA_OF_ASC_NODE":82.3299,"ARG_OF_PERICENTER":283.2199,"MEAN_ANOMALY":82.0052,"EPHEMERIS_TYPE":0,"CLASSIFICATION_TYPE":"U","NORAD_CAT_ID":26554,"ELEMENT_SET_NO":999,"REV_AT_EPOCH":4048,"BSTAR":0,"MEAN_MOTION_DOT":7.0e-8,"MEAN_MOTION_DDOT":0},{"OBJECT_NAME":"AMC-6","OBJECT_ID":"2000-067A","EPOCH":"2026-03-29T03:34:38.760672","MEAN_MOTION":1.0027103,"ECCENTRICITY":0.0003464,"INCLINATION":0.0508,"RA_OF_ASC_NODE":44.8653,"ARG_OF_PERICENTER":329.0736,"MEAN_ANOMALY":91.2065,"EPHEMERIS_TYPE":0,"CLASSIFICATION_TYPE":"U","NORAD_CAT_ID":26580,"ELEMENT_SET_NO":999,"REV_AT_EPOCH":9309,"BSTAR":0,"MEAN_MOTION_DOT":6.9e-7,"MEAN_MOTION_DDOT":0},{"OBJECT_NAME":"AMC-11","OBJECT_ID":"2004-017A","EPOCH":"2026-03-29T03:18:38.644992","MEAN_MOTION":1.00271854,"ECCENTRICITY":0.0003145,"INCLINATION":0.1049,"RA_OF_ASC_NODE":79.8169,"ARG_OF_PERICENTER":288.5877,"MEAN_ANOMALY":116.6846,"EPHEMERIS_TYPE":0,"CLASSIFICATION_TYPE":"U","NORAD_CAT_ID":28252,"ELEMENT_SET_NO":999,"REV_AT_EPOCH":8006,"BSTAR":0,"MEAN_MOTION_DOT":-6.9e-7,"MEAN_MOTION_DDOT":0},{"OBJECT_NAME":"AMC-15","OBJECT_ID":"2004-041A","EPOCH":"2026-03-29T03:18:14.645664","MEAN_MOTION":1.00271701,"ECCENTRICITY":0.0002282,"INCLINATION":0.0445,"RA_OF_ASC_NODE":21.6602,"ARG_OF_PERICENTER":330.3927,"MEAN_ANOMALY":138.9977,"EPHEMERIS_TYPE":0,"CLASSIFICATION_TYPE":"U","NORAD_CAT_ID":28446,"ELEMENT_SET_NO":999,"REV_AT_EPOCH":7850,"BSTAR":0,"MEAN_MOTION_DOT":-1.08e-6,"MEAN_MOTION_DDOT":0},{"OBJECT_NAME":"NSS-10","OBJECT_ID":"2005-003A","EPOCH":"2026-03-28T19:44:27.356640","MEAN_MOTION":1.00271945,"ECCENTRICITY":0.0003262,"INCLINATION":6.2498,"RA_OF_ASC_NODE":71.4127,"ARG_OF_PERICENTER":291.222,"MEAN_ANOMALY":82.2564,"EPHEMERIS_TYPE":0,"CLASSIFICATION_TYPE":"U","NORAD_CAT_ID":28526,"ELEMENT_SET_NO":999,"REV_AT_EPOCH":5235,"BSTAR":0,"MEAN_MOTION_DOT":-2.66e-6,"MEAN_MOTION_DDOT":0},{"OBJECT_NAME":"ASTRA 1KR","OBJECT_ID":"2006-012A","EPOCH":"2026-03-29T02:51:03.593376","MEAN_MOTION":1.00274182,"ECCENTRICITY":0.0003446,"INCLINATION":0.268,"RA_OF_ASC_NODE":82.0327,"ARG_OF_PERICENTER":281.189,"MEAN_ANOMALY":245.048,"EPHEMERIS_TYPE":0,"CLASSIFICATION_TYPE":"U","NORAD_CAT_ID":29055,"ELEMENT_SET_NO":999,"REV_AT_EPOCH":4489,"BSTAR":0,"MEAN_MOTION_DOT":1.0e-6,"MEAN_MOTION_DDOT":0},{"OBJECT_NAME":"ASTRA 1L","OBJECT_ID":"2007-016A","EPOCH":"2026-03-29T04:47:50.859744","MEAN_MOTION":1.00271456,"ECCENTRICITY":0.0004007,"INCLINATION":1.1156,"RA_OF_ASC_NODE":82.1337,"ARG_OF_PERICENTER":301.4455,"MEAN_ANOMALY":210.4639,"EPHEMERIS_TYPE":0,"CLASSIFICATION_TYPE":"U","NORAD_CAT_ID":31306,"ELEMENT_SET_NO":999,"REV_AT_EPOCH":4418,"BSTAR":0,"MEAN_MOTION_DOT":-2.03e-6,"MEAN_MOTION_DDOT":0},{"OBJECT_NAME":"ASTRA 4A","OBJECT_ID":"2007-057A","EPOCH":"2026-03-29T04:29:58.882848","MEAN_MOTION":1.00272782,"ECCENTRICITY":0.0002548,"INCLINATION":0.0429,"RA_OF_ASC_NODE":37.3133,"ARG_OF_PERICENTER":335.5904,"MEAN_ANOMALY":245.9729,"EPHEMERIS_TYPE":0,"CLASSIFICATION_TYPE":"U","NORAD_CAT_ID":32299,"ELEMENT_SET_NO":999,"REV_AT_EPOCH":5084,"BSTAR":0,"MEAN_MOTION_DOT":1.3e-7,"MEAN_MOTION_DDOT":0},{"OBJECT_NAME":"ASTRA 1M","OBJECT_ID":"2008-057A","EPOCH":"2026-03-29T02:51:03.593376","MEAN_MOTION":1.00278938,"ECCENTRICITY":0.0002363,"INCLINATION":0.0936,"RA_OF_ASC_NODE":73.7757,"ARG_OF_PERICENTER":4.2069,"MEAN_ANOMALY":170.6885,"EPHEMERIS_TYPE":0,"CLASSIFICATION_TYPE":"U","NORAD_CAT_ID":33436,"ELEMENT_SET_NO":999,"REV_AT_EPOCH":4493,"BSTAR":0,"MEAN_MOTION_DOT":1.02e-6,"MEAN_MOTION_DDOT":0},{"OBJECT_NAME":"NSS-9","OBJECT_ID":"2009-008A","EPOCH":"2026-03-29T03:38:03.862176","MEAN_MOTION":1.0027349,"ECCENTRICITY":0.000216,"INCLINATION":1.0554,"RA_OF_ASC_NODE":83.3649,"ARG_OF_PERICENTER":272.5336,"MEAN_ANOMALY":68.2395,"EPHEMERIS_TYPE":0,"CLASSIFICATION_TYPE":"U","NORAD_CAT_ID":33749,"ELEMENT_SET_NO":999,"REV_AT_EPOCH":6271,"BSTAR":0,"MEAN_MOTION_DOT":5.3e-7,"MEAN_MOTION_DDOT":0},{"OBJECT_NAME":"SES-7 (PROTOSTAR 2)","OBJECT_ID":"2009-027A","EPOCH":"2026-03-28T23:51:20.831040","MEAN_MOTION":1.0027202,"ECCENTRICITY":0.0001772,"INCLINATION":0.0746,"RA_OF_ASC_NODE":77.7962,"ARG_OF_PERICENTER":248.8102,"MEAN_ANOMALY":325.8664,"EPHEMERIS_TYPE":0,"CLASSIFICATION_TYPE":"U","NORAD_CAT_ID":34941,"ELEMENT_SET_NO":999,"REV_AT_EPOCH":6182,"BSTAR":0,"MEAN_MOTION_DOT":-3.64e-6,"MEAN_MOTION_DDOT":0},{"OBJECT_NAME":"NSS-12","OBJECT_ID":"2009-058A","EPOCH":"2026-03-29T03:02:07.308672","MEAN_MOTION":1.0027131,"ECCENTRICITY":0.0005031,"INCLINATION":0.0607,"RA_OF_ASC_NODE":53.8757,"ARG_OF_PERICENTER":295.4962,"MEAN_ANOMALY":299.6778,"EPHEMERIS_TYPE":0,"CLASSIFICATION_TYPE":"U","NORAD_CAT_ID":36032,"ELEMENT_SET_NO":999,"REV_AT_EPOCH":6011,"BSTAR":0,"MEAN_MOTION_DOT":5.2e-7,"MEAN_MOTION_DDOT":0},{"OBJECT_NAME":"SES-1","OBJECT_ID":"2010-016A","EPOCH":"2026-03-29T05:17:34.097856","MEAN_MOTION":1.00270256,"ECCENTRICITY":0.0002626,"INCLINATION":0.013,"RA_OF_ASC_NODE":187.2467,"ARG_OF_PERICENTER":179.0193,"MEAN_ANOMALY":158.7653,"EPHEMERIS_TYPE":0,"CLASSIFICATION_TYPE":"U","NORAD_CAT_ID":36516,"ELEMENT_SET_NO":999,"REV_AT_EPOCH":5823,"BSTAR":0,"MEAN_MOTION_DOT":0,"MEAN_MOTION_DDOT":0},{"OBJECT_NAME":"ASTRA 3B","OBJECT_ID":"2010-021A","EPOCH":"2026-03-29T01:09:50.800032","MEAN_MOTION":1.00269501,"ECCENTRICITY":0.0003491,"INCLINATION":1.2617,"RA_OF_ASC_NODE":84.5329,"ARG_OF_PERICENTER":299.062,"MEAN_ANOMALY":203.8237,"EPHEMERIS_TYPE":0,"CLASSIFICATION_TYPE":"U","NORAD_CAT_ID":36581,"ELEMENT_SET_NO":999,"REV_AT_EPOCH":5806,"BSTAR":0,"MEAN_MOTION_DOT":1.18e-6,"MEAN_MOTION_DDOT":0},{"OBJECT_NAME":"SES-3","OBJECT_ID":"2011-035A","EPOCH":"2026-03-29T03:59:09.337920","MEAN_MOTION":1.002712,"ECCENTRICITY":0.0003504,"INCLINATION":1.1204,"RA_OF_ASC_NODE":83.926,"ARG_OF_PERICENTER":285.1753,"MEAN_ANOMALY":134.248,"EPHEMERIS_TYPE":0,"CLASSIFICATION_TYPE":"U","NORAD_CAT_ID":37748,"ELEMENT_SET_NO":999,"REV_AT_EPOCH":5379,"BSTAR":0,"MEAN_MOTION_DOT":-1.2e-6,"MEAN_MOTION_DDOT":0},{"OBJECT_NAME":"ASTRA 1N","OBJECT_ID":"2011-041A","EPOCH":"2026-03-29T02:51:03.593376","MEAN_MOTION":1.00272932,"ECCENTRICITY":0.0005028,"INCLINATION":0.1119,"RA_OF_ASC_NODE":53.2597,"ARG_OF_PERICENTER":338.1954,"MEAN_ANOMALY":217.0131,"EPHEMERIS_TYPE":0,"CLASSIFICATION_TYPE":"U","NORAD_CAT_ID":37775,"ELEMENT_SET_NO":999,"REV_AT_EPOCH":4372,"BSTAR":0,"MEAN_MOTION_DOT":1.0e-6,"MEAN_MOTION_DDOT":0}]
