AMC-3                   
1 24936U 97050A   26088.20731492 -.00000275  00000+0  00000+0 0  9990
2 24936   7.9515  64.9847 0003381 305.9004 178.3497  1.00272429 51638
NSS-11                  
1 26554U 00059A   26087.23864338  .00000007  00000+0  00000+0 0  9991
2 26554   1.9181  82.3299 0003084 283.2199  82.0052  1.00271838 40489
AMC-6                   
1 26580U 00067A   26088.14905973  .00000069  00000+0  00000+0 0  9999
2 26580   0.0508  44.8653 0003464 329.0736  91.2065  1.00271030 93091
AMC-11                  
1 28252U 04017A   26088.13794728 -.00000069  00000+0  00000+0 0  9990
2 28252   0.1049  79.8169 0003145 288.5877 116.6846  1.00271854 80067
AMC-15                  
1 28446U 04041A   26088.13766951 -.00000108  00000+0  00000+0 0  9993
2 28446   0.0445  21.6602 0002282 330.3927 138.9977  1.00271701 78500
NSS-10                  
1 28526U 05003A   26087.82253885 -.00000266  00000+0  00000+0 0  9998
2 28526   6.2498  71.4127 0003262 291.2220  82.2564  1.00271945 52358
ASTRA 1KR               
1 29055U 06012A   26088.11879159  .00000100  00000+0  00000+0 0  9994
2 29055   0.2680  82.0327 0003446 281.1890 245.0480  1.00274182 44890
ASTRA 1L                
1 31306U 07016A   26088.19989421 -.00000203  00000+0  00000+0 0  9998
2 31306   1.1156  82.1337 0004007 301.4455 210.4639  1.00271456 44184
ASTRA 4A                
1 32299U 07057A   26088.18748707  .00000013  00000+0  00000+0 0  9992
2 32299   0.0429  37.3133 0002548 335.5904 245.9729  1.00272782 50844
ASTRA 1M                
1 33436U 08057A   26088.11879159  .00000102  00000+0  00000+0 0  9995
2 33436   0.0936  73.7757 0002363   4.2069 170.6885  1.00278938 44933
NSS-9                   
1 33749U 09008A   26088.15143359  .00000053  00000+0  00000+0 0  9994
2 33749   1.0554  83.3649 0002160 272.5336  68.2395  1.00273490 62718
SES-7 (PROTOSTAR 2)     
1 34941U 09027A   26087.99399110 -.00000364  00000+0  00000+0 0  9995
2 34941   0.0746  77.7962 0001772 248.8102 325.8664  1.00272020 61825
NSS-12                  
1 36032U 09058A   26088.12647348  .00000052  00000+0  00000+0 0  9990
2 36032   0.0607  53.8757 0005031 295.4962 299.6778  1.00271310 60111
SES-1                   
1 36516U 10016A   26088.22053354  .00000000  00000+0  00000+0 0  9995
2 36516   0.0130 187.2467 0002626 179.0193 158.7653  1.00270256 58234
ASTRA 3B                
1 36581U 10021A   26088.04850463  .00000118  00000+0  00000+0 0  9999
2 36581   1.2617  84.5329 0003491 299.0620 203.8237  1.00269501 58066
SES-3                   
1 37748U 11035A   26088.16608030 -.00000120  00000+0  00000+0 0  9999
2 37748   1.1204  83.9260 0003504 285.1753 134.2480  1.00271200 53799
ASTRA 1N                
1 37775U 11041A   26088.11879159  .00000100  00000+0  00000+0 0  9990
2 37775   0.1119  53.2597 0005028 338.1954 217.0131  1.00272932 43729
